STARLINK-2740           
1 48690U 21044BE  26068.39465036  .00000738  00000+0  37045-4 0  9996
2 48690  53.1612  76.6888 0001278  99.2058 260.9087 15.30199466264313
TEVEL2-1                
1 63217U 25052H   26068.64782323  .00020683  00000+0  70600-3 0  9994
2 63217  97.3991 324.7682 0004767 104.8919 255.2849 15.30341923 54855
